CCSDS_OMM_VERS = 2.0
CREATION_DATE  = 
ORIGINATOR     = 

OBJECT_NAME    = SHENZHOU-21 (SZ-21)
OBJECT_ID      = 2025-246A
CENTER_NAME    = EARTH
REF_FRAME      = TEME
TIME_SYSTEM    = UTC
MEAN_ELEMENT_THEORY = SGP/SGP4

EPOCH          = 2025-11-04T03:50:32.751456
MEAN_MOTION    = 15.60341380
ECCENTRICITY   = .0006377
INCLINATION    = 41.4668
RA_OF_ASC_NODE = 251.0039
ARG_OF_PERICENTER = 319.7576
MEAN_ANOMALY   = 40.2790

EPHEMERIS_TYPE = 0
CLASSIFICATION_TYPE = U
NORAD_CAT_ID   = 66263
ELEMENT_SET_NO = 999
REV_AT_EPOCH   = 25798
BSTAR          = .38952949E-3
MEAN_MOTION_DOT = .32649E-3
MEAN_MOTION_DDOT = 0

CCSDS_OMM_VERS = 2.0
CREATION_DATE  = 
ORIGINATOR     = 

OBJECT_NAME    = CZ-2F R/B
OBJECT_ID      = 2025-246B
CENTER_NAME    = EARTH
REF_FRAME      = TEME
TIME_SYSTEM    = UTC
MEAN_ELEMENT_THEORY = SGP/SGP4

EPOCH          = 2025-11-04T03:06:07.098048
MEAN_MOTION    = 16.06762742
ECCENTRICITY   = .00958627
INCLINATION    = 41.4657
RA_OF_ASC_NODE = 249.8168
ARG_OF_PERICENTER = 151.7950
MEAN_ANOMALY   = 208.8142

EPHEMERIS_TYPE = 0
CLASSIFICATION_TYPE = U
NORAD_CAT_ID   = 66264
ELEMENT_SET_NO = 999
REV_AT_EPOCH   = 56
BSTAR          = .64608113E-3
MEAN_MOTION_DOT = .1014878E-1
MEAN_MOTION_DDOT = .7581539E-5

