SHENZHOU-21 (SZ-21)     
1 66263U 25246A   25308.16010129  .00032649  00000+0  38953-3 0  9994
2 66263  41.4668 251.0039 0006377 319.7576  40.2790 15.60341380257989
CZ-2F R/B               
1 66264U 25246B   25308.12924882  .01014878  75815-5  64608-3 0  9994
2 66264  41.4657 249.8168 0095862 151.7950 208.8142 16.06762742   566
